NORAD_CAT_ID,OBJECT_NAME,OBJECT_TYPE,EPOCH,MEAN_MOTION,ECCENTRICITY,INCLINATION,RA_OF_ASC_NODE,ARG_OF_PERICENTER,MEAN_ANOMALY,BSTAR,MEAN_MOTION_DOT,MEAN_MOTION_DDOT,TLE_LINE0,TLE_LINE1,TLE_LINE2,SEMIMAJOR_AXIS,PERIOD,APOGEE,PERIGEE,DECAYED
56495.0,STARLINK-5529,PAYLOAD,2024-01-05 21:48:21,14.98328687,0.0002721,70.0,305.7799,265.4102,94.6746,-5.5632e-06,-1.59e-06,0.0,0 STARLINK-5529,1 56495U 23064AZ  24005.90858610 -.00000159  00000-0 -55632-5 0  9995,2 56495  70.0000 305.7799 0002721 265.4102  94.6746 14.98328687 37338,6950.197,96.107,573.953,570.171,0.0
56495.0,STARLINK-5529,PAYLOAD,2024-01-06 04:12:54,14.98328834,0.000272,70.0001,305.1068,265.2549,94.83,-3.9133e-06,-1.4e-06,0.0,0 STARLINK-5529,1 56495U 23064AZ  24006.17562604 -.00000140  00000-0 -39133-5 0  9998,2 56495  70.0001 305.1068 0002720 265.2549  94.8300 14.98328834 37730,6950.196,96.107,573.952,570.171,0.0
56495.0,STARLINK-5529,PAYLOAD,2024-01-06 05:49:02,14.98329657,0.0002756,69.9999,304.9371,269.1924,90.8919,8.8888e-06,1.3e-07,0.0,0 STARLINK-5529,1 56495U 23064AZ  24006.24238535  .00000013  00000-0  88888-5 0  9997,2 56495  69.9999 304.9371 0002756 269.1924  90.8919 14.98329657 37383,6950.194,96.107,573.974,570.143,0.0
56495.0,STARLINK-5529,PAYLOAD,2024-01-06 21:50:22,14.98331567,0.000276,69.9999,303.2537,269.6972,90.387,-3.4996e-05,-5.11e-06,0.0,0 STARLINK-5529,1 56495U 23064AZ  24006.90998525 -.00000511  00000-0 -34996-4 0  9997,2 56495  69.9999 303.2537 0002760 269.6972  90.3870 14.98331567 37487,6950.188,96.107,573.971,570.135,0.0
56495.0,STARLINK-5529,PAYLOAD,2024-01-07 04:14:54,14.9833389,0.000275,69.9998,302.5803,269.2688,90.8156,-5.6464e-06,-1.6e-06,0.0,0 STARLINK-5529,1 56495U 23064AZ  24007.17702256 -.00000160  00000-0 -56464-5 0  9996,2 56495  69.9998 302.5803 0002750 269.2688  90.8156 14.98333890 37880,6950.181,96.107,573.957,570.135,0.0
56495.0,STARLINK-5529,PAYLOAD,2024-01-07 05:51:02,14.98335177,0.0002754,69.9998,302.4121,269.4061,90.6783,8.6024e-06,1e-07,0.0,0 STARLINK-5529,1 56495U 23064AZ  24007.24378120  .00000010  00000-0  86024-5 0  9990,2 56495  69.9998 302.4121 0002754 269.4061  90.6783 14.98335177 37539,6950.177,96.107,573.956,570.128,0.0
56495.0,STARLINK-5529,PAYLOAD,2024-01-07 21:52:23,14.98327513,0.0002687,70.0,300.729,270.839,89.2461,4.3313e-07,-8.8e-07,0.0,0 STARLINK-5529,1 56495U 23064AZ  24007.91138594 -.00000088  00000-0  43313-6 0  9994,2 56495  70.0000 300.7290 0002687 270.8390  89.2461 14.98327513 37633,6950.201,96.107,573.933,570.198,0.0
56495.0,STARLINK-5529,PAYLOAD,2024-01-08 05:53:04,14.98326651,0.0002484,69.9999,299.8872,265.7788,94.3088,4.2379e-08,-9.2e-07,0.0,0 STARLINK-5529,1 56495U 23064AZ  24008.24518682 -.00000092  00000-0  42379-7 0  9998,2 56495  69.9999 299.8872 0002484 265.7788  94.3088 14.98326651 38040,6950.203,96.107,573.795,570.342,0.0
56495.0,STARLINK-5529,PAYLOAD,2024-01-08 21:54:24,14.98326696,0.0002545,70.0,298.2043,262.0293,98.0578,-2.4094e-05,-3.8e-06,0.0,0 STARLINK-5529,1 56495U 23064AZ  24008.91278791 -.00000380  00000-0 -24094-4 0  9998,2 56495  70.0000 298.2043 0002545 262.0293  98.0578 14.98326696 37782,6950.203,96.107,573.837,570.299,0.0
56495.0,STARLINK-5529,PAYLOAD,2024-01-09 05:55:05,14.98329013,0.000252,70.0001,297.3628,260.5501,99.5373,1.2332e-05,5.4e-07,0.0,0 STARLINK-5529,1 56495U 23064AZ  24009.24658588  .00000054  00000-0  12332-4 0  9999,2 56495  70.0001 297.3628 0002520 260.5501  99.5373 14.98329013 38191,6950.196,96.107,573.812,570.309,0.0
56495.0,STARLINK-5529,PAYLOAD,2024-01-09 21:56:25,14.98331761,0.000257,69.9999,295.6794,262.6172,97.4695,4.3949e-05,4.31e-06,0.0,0 STARLINK-5529,1 56495U 23064AZ  24009.91418246  .00000431  00000-0  43949-4 0  9995,2 56495  69.9999 295.6794 0002570 262.6172  97.4695 14.98331761 37939,6950.187,96.107,573.839,570.266,0.0
56495.0,STARLINK-5529,PAYLOAD,2024-01-10 04:20:57,14.98333911,0.0002647,69.9997,295.0057,269.058,91.0276,5.5648e-05,5.71e-06,0.0,0 STARLINK-5529,1 56495U 23064AZ  24010.18122061  .00000571  00000-0  55648-4 0  9997,2 56495  69.9997 295.0057 0002647 269.0580  91.0276 14.98333911 38331,6950.181,96.107,573.886,570.206,0.0
56495.0,STARLINK-5529,PAYLOAD,2024-01-11 02:46:50,14.98329208,0.0002773,69.999,292.6483,264.3919,95.6924,-6.538e-06,-1.71e-06,0.0,0 STARLINK-5529,1 56495U 23064AZ  24011.11586625 -.00000171  00000-0 -65380-5 0  9994,2 56495  69.9990 292.6483 0002773 264.3919  95.6924 14.98329208 38473,6950.195,96.107,573.988,570.133,0.0
56495.0,STARLINK-5529,PAYLOAD,2024-01-11 04:22:58,14.98331588,0.0002741,69.9994,292.4805,265.2929,94.7917,2.0151e-05,1.47e-06,0.0,0 STARLINK-5529,1 56495U 23064AZ  24011.18262414  .00000147  00000-0  20151-4 0  9995,2 56495  69.9994 292.4805 0002741 265.2929  94.7917 14.98331588 38127,6950.188,96.107,573.958,570.148,0.0
56495.0,STARLINK-5529,PAYLOAD,2024-01-11 22:00:27,14.98332823,0.0002752,69.9993,290.6291,264.5748,95.5097,-3.8913e-05,-5.57e-06,0.0,0 STARLINK-5529,1 56495U 23064AZ  24011.91698444 -.00000557  00000-0 -38913-4 0  9994,2 56495  69.9993 290.6291 0002752 264.5748  95.5097 14.98332823 38231,6950.184,96.107,573.962,570.136,0.0
56495.0,STARLINK-5529,PAYLOAD,2024-01-12 02:48:51,14.98335438,0.0002655,69.9995,290.1249,261.4859,98.6,6.1939e-06,-1.9e-07,0.0,0 STARLINK-5529,1 56495U 23064AZ  24012.11726099 -.00000019  00000-0  61939-5 0  9992,2 56495  69.9995 290.1249 0002655 261.4859  98.6000 14.98335438 38628,6950.176,96.107,573.886,570.196,0.0
56495.0,STARLINK-5529,PAYLOAD,2024-01-12 04:24:59,14.98337509,0.0002706,69.9993,289.9554,267.4499,92.635,3.0558e-05,2.72e-06,0.0,0 STARLINK-5529,1 56495U 23064AZ  24012.18401901  .00000272  00000-0  30558-4 0  9993,2 56495  69.9993 289.9554 0002706 267.4499  92.6350 14.98337509 38278,6950.17,96.107,573.915,570.154,0.0
56495.0,STARLINK-5529,PAYLOAD,2024-01-12 20:26:20,14.98319964,0.0002449,70.0,288.2722,270.303,89.7849,0.0001056,1.167e-05,0.0,0 STARLINK-5529,1 56495U 23064AZ  24012.85162769  .00001167  00000-0  10560-3 0  9997,2 56495  70.0000 288.2722 0002449 270.3030  89.7849 14.98319964 38733,6950.224,96.108,573.791,570.387,0.0
56495.0,STARLINK-5529,PAYLOAD,2024-01-12 22:02:28,14.98320136,0.0002461,69.9999,288.1039,270.4618,89.6259,9.0866e-05,9.91e-06,0.0,0 STARLINK-5529,1 56495U 23064AZ  24012.91838836  .00000991  00000-0  90866-4 0  9991,2 56495  69.9999 288.1039 0002461 270.4618  89.6259 14.98320136 38382,6950.223,96.108,573.799,570.378,0.0
56495.0,STARLINK-5529,PAYLOAD,2024-01-13 04:27:01,14.98275216,0.0002176,70.0,287.4311,265.8474,94.2436,0.00088323,0.00010446,0.0,0 STARLINK-5529,1 56495U 23064AZ  24013.18543889  .00010446  00000-0  88323-3 0  9992,2 56495  70.0000 287.4311 0002176 265.8474  94.2436 14.98275216 38785,6950.362,96.111,573.74,570.715,0.0
56495.0,STARLINK-5529,PAYLOAD,2024-01-13 18:52:13,14.983305,0.0002497,70.0,285.9162,272.6996,87.3877,-2.3442e-05,-3.73e-06,0.0,0 STARLINK-5529,1 56495U 23064AZ  24013.78626646 -.00000373  00000-0 -23442-4 0  9993,2 56495  70.0000 285.9162 0002497 272.6996  87.3877 14.98330500 38873,6950.191,96.107,573.792,570.321,0.0
56495.0,STARLINK-5529,PAYLOAD,2024-01-14 04:29:01,14.9833441,0.0002458,69.9999,284.9057,270.3793,89.7085,2.6125e-05,2.19e-06,0.0,0 STARLINK-5529,1 56495U 23064AZ  24014.18682204  .00000219  00000-0  26125-4 0  9998,2 56495  69.9999 284.9057 0002458 270.3793  89.7085 14.98334410 38574,6950.179,96.107,573.753,570.336,0.0
56495.0,STARLINK-5529,PAYLOAD,2024-01-14 18:54:14,14.98327464,0.0002391,70.0,283.3918,253.4211,106.6686,3.9016e-05,3.73e-06,0.0,0 STARLINK-5529,1 56495U 23064AZ  24014.78766442  .00000373  00000-0  39016-4 0  9995,2 56495  70.0000 283.3918 0002391 253.4211 106.6686 14.98327464 39020,6950.201,96.107,573.728,570.404,0.0
56495.0,STARLINK-5529,PAYLOAD,2024-01-14 20:30:22,14.98328049,0.0002389,70.0001,283.2233,253.4727,106.617,4.5476e-05,4.5e-06,0.0,0 STARLINK-5529,1 56495U 23064AZ  24014.85442393  .00000450  00000-0  45476-4 0  9992,2 56495  70.0001 283.2233 0002389 253.4727 106.6170 14.98328049 38677,6950.199,96.107,573.724,570.404,0.0
56495.0,STARLINK-5529,PAYLOAD,2024-01-15 04:31:02,14.98331406,0.0002351,70.0002,282.3819,251.3279,108.7625,7.9411e-05,8.55e-06,0.0,0 STARLINK-5529,1 56495U 23064AZ  24015.18822079  .00000855  00000-0  79411-4 0  9997,2 56495  70.0002 282.3819 0002351 251.3279 108.7625 14.98331406 38721,6950.189,96.107,573.688,570.42,0.0
56495.0,STARLINK-5529,PAYLOAD,2024-01-15 18:56:14,14.98330963,0.0002389,70.0007,280.8675,237.8615,122.2313,3.3023e-06,-5.3e-07,0.0,0 STARLINK-5529,1 56495U 23064AZ  24015.78906211 -.00000053  00000-0  33023-5 0  9995,2 56495  70.0007 280.8675 0002389 237.8615 122.2313 14.98330963 39175,6950.19,96.107,573.715,570.395,0.0
56495.0,STARLINK-5529,PAYLOAD,2024-01-15 20:32:23,14.98330772,0.0002412,70.0006,280.6993,237.3154,122.7772,-6.6442e-07,-1.01e-06,0.0,0 STARLINK-5529,1 56495U 23064AZ  24015.85582221 -.00000101  00000-0 -66442-6 0  9991,2 56495  70.0006 280.6993 0002412 237.3154 122.7772 14.98330772 38828,6950.191,96.107,573.732,570.379,0.0
56495.0,STARLINK-5529,PAYLOAD,2024-01-16 02:56:55,14.98325259,0.0002405,70.0004,280.0256,246.764,113.3266,-6.9355e-05,-9.2e-06,0.0,0 STARLINK-5529,1 56495U 23064AZ  24016.12286817 -.00000920  00000-0 -69355-4 0  9997,2 56495  70.0004 280.0256 0002405 246.7640 113.3266 14.98325259 39221,6950.208,96.107,573.744,570.401,0.0
56495.0,STARLINK-5529,PAYLOAD,2024-01-16 18:58:16,14.98330959,0.0002785,69.999,278.3409,264.6175,95.4666,-6.7422e-05,-8.97e-06,0.0,0 STARLINK-5529,1 56495U 23064AZ  24016.79046433 -.00000897  00000-0 -67422-4 0  9994,2 56495  69.9990 278.3409 0002785 264.6175  95.4666 14.98330959 39323,6950.19,96.107,573.991,570.119,0.0
56495.0,STARLINK-5529,PAYLOAD,2024-01-16 22:10:32,14.98329959,0.0002734,69.9992,278.0037,265.2805,94.8042,-5.0028e-05,-6.9e-06,0.0,0 STARLINK-5529,1 56495U 23064AZ  24016.92398436 -.00000690  00000-0 -50028-4 0  9997,2 56495  69.9992 278.0037 0002734 265.2805  94.8042 14.98329959 38980,6950.193,96.107,573.958,570.158,0.0
